GLOBALSTAR M023         
1 25621U 99004A   25188.77163034 -.00000182  00000+0 -43596-3 0  9995
2 25621  52.0128 350.7611 0010148 166.4918 207.1208 12.62505675218334
GLOBALSTAR M040         
1 25622U 99004B   25188.94811076 -.00000091  00000+0  72761-4 0  9996
2 25622  51.9937 354.4099 0001700  88.6920  82.2160 12.62012162217875
GLOBALSTAR M036         
1 25623U 99004C   25188.70552002 -.00000060  00000+0  33718-3 0  9996
2 25623  51.9935 186.2395 0010998  90.5424  80.6527 11.86608317181411
GLOBALSTAR M038         
1 25624U 99004D   25189.49525429 -.00000079  00000+0  13480-3 0  9991
2 25624  51.9992  10.2070 0002726  95.4676 282.1199 12.32528917204963
GLOBALSTAR M022         
1 25649U 99012A   25189.18906828 -.00000018  00000+0  82291-3 0  9998
2 25649  52.0017 233.8106 0002772 212.9118 216.3787 12.02501401178981
GLOBALSTAR M041         
1 25650U 99012B   25189.18337396 -.00000091  00000+0 -66882-4 0  9999
2 25650  52.0011 115.9173 0001976   6.0015 354.0845 11.96681851181039
GLOBALSTAR M046         
1 25651U 99012C   25188.91227512 -.00000162  00000+0 -80302-3 0  9999
2 25651  52.0021 183.9387 0002267 296.3113  76.3267 12.09411116186172
GLOBALSTAR M037         
1 25652U 99012D   25189.17482778 -.00000109  00000+0 -27475-4 0  9990
2 25652  51.9997 120.1453 0001551 242.0995 256.8196 12.62448012213970
